{
  "type": "Feature",
  "properties": { "name": "Forest Park" },
  "geometry": {
    "type": "Polygon",
    "coordinates": [[
      [-122.7480, 45.5518],
      [-122.7523, 45.5548],
      [-122.7568, 45.5580],
      [-122.7613, 45.5612],
      [-122.7656, 45.5648],
      [-122.7695, 45.5685],
      [-122.7725, 45.5718],
      [-122.7748, 45.5748],
      [-122.7765, 45.5780],
      [-122.7778, 45.5815],
      [-122.7788, 45.5848],
      [-122.7795, 45.5882],
      [-122.7800, 45.5918],
      [-122.7803, 45.5952],
      [-122.7805, 45.5985],
      [-122.7806, 45.6010],
      [-122.7805, 45.6030],
      [-122.7800, 45.6048],
      [-122.7792, 45.6062],
      [-122.7780, 45.6072],
      [-122.7765, 45.6080],
      [-122.7748, 45.6085],
      [-122.7730, 45.6088],
      [-122.7710, 45.6090],
      [-122.7688, 45.6090],
      [-122.7665, 45.6088],
      [-122.7640, 45.6085],
      [-122.7612, 45.6080],
      [-122.7582, 45.6072],
      [-122.7550, 45.6062],
      [-122.7518, 45.6050],
      [-122.7488, 45.6035],
      [-122.7460, 45.6018],
      [-122.7435, 45.6000],
      [-122.7412, 45.5980],
      [-122.7392, 45.5958],
      [-122.7375, 45.5935],
      [-122.7360, 45.5910],
      [-122.7348, 45.5883],
      [-122.7338, 45.5855],
      [-122.7330, 45.5825],
      [-122.7323, 45.5793],
      [-122.7318, 45.5760],
      [-122.7315, 45.5726],
      [-122.7313, 45.5692],
      [-122.7313, 45.5658],
      [-122.7315, 45.5625],
      [-122.7320, 45.5593],
      [-122.7328, 45.5563],
      [-122.7340, 45.5535],
      [-122.7355, 45.5510],
      [-122.7373, 45.5488],
      [-122.7393, 45.5468],
      [-122.7415, 45.5452],
      [-122.7438, 45.5438],
      [-122.7462, 45.5428],
      [-122.7487, 45.5420],
      [-122.7480, 45.5518]
    ]]
  }
}
